{
  "type": "FeatureCollection",
  "metadata": {
    "source": "OpenStreetMap contributors",
    "license": "ODbL 1.0",
    "osm_base_timestamp": "2026-09-11T20:15:48Z",
    "simplification_tolerance_degrees": 0.004
  },
  "features": [
    {
      "type": "Feature",
      "properties": {
        "closed": true
      },
      "geometry": {
        "type": "LineString",
        "coordinates": [
          [
            16.3663315,
            43.1951194
          ],
          [
            17.0024639,
            43.1134012
          ],
          [
            16.8734362,
            43.1568661
          ],
          [
            16.6841433,
            43.1839505
          ],
          [
            16.5824446,
            43.2136232
          ],
          [
            16.5501166,
            43.2195348
          ],
          [
            16.4543396,
            43.2079519
          ],
          [
            16.3663315,
            43.1951194
          ]
        ]
      }
    },
    {
      "type": "Feature",
      "properties": {
        "closed": true
      },
      "geometry": {
        "type": "LineString",
        "coordinates": [
          [
            14.5169513,
            44.6088283
          ],
          [
            14.5050094,
            44.6532354
          ],
          [
            14.4600964,
            44.9053207
          ],
          [
            14.3269978,
            45.168127
          ],
          [
            14.4075777,
            44.9601319
          ],
          [
            14.3218737,
            44.885466
          ],
          [
            14.3996188,
            44.7099365
          ],
          [
            14.5169513,
            44.6088283
          ]
        ]
      }
    },
    {
      "type": "Feature",
      "properties": {
        "closed": true
      },
      "geometry": {
        "type": "LineString",
        "coordinates": [
          [
            14.7322665,
            44.7038654
          ],
          [
            14.8998909,
            44.4970477
          ],
          [
            15.1139932,
            44.3696953
          ],
          [
            15.1936027,
            44.3516096
          ],
          [
            15.0432394,
            44.4795875
          ],
          [
            15.0439716,
            44.493968
          ],
          [
            14.9449855,
            44.5799508
          ],
          [
            14.7322665,
            44.7038654
          ]
        ]
      }
    },
    {
      "type": "Feature",
      "properties": {
        "closed": true
      },
      "geometry": {
        "type": "LineString",
        "coordinates": [
          [
            16.6276038,
            42.9841583
          ],
          [
            16.70755,
            42.9616225
          ],
          [
            16.6638634,
            42.9148826
          ],
          [
            16.864302,
            42.8934231
          ],
          [
            17.1603235,
            42.9279335
          ],
          [
            17.047679,
            42.9802646
          ],
          [
            16.7836523,
            42.9664398
          ],
          [
            16.6276038,
            42.9841583
          ]
        ]
      }
    },
    {
      "type": "Feature",
      "properties": {
        "closed": true
      },
      "geometry": {
        "type": "LineString",
        "coordinates": [
          [
            16.4081176,
            43.3199194
          ],
          [
            16.4833066,
            43.2964678
          ],
          [
            16.7525014,
            43.2650828
          ],
          [
            16.8854397,
            43.3078002
          ],
          [
            16.8155421,
            43.3351649
          ],
          [
            16.7358412,
            43.36199
          ],
          [
            16.5118956,
            43.3831755
          ],
          [
            16.4081176,
            43.3199194
          ]
        ]
      }
    },
    {
      "type": "Feature",
      "properties": {
        "closed": true
      },
      "geometry": {
        "type": "LineString",
        "coordinates": [
          [
            14.4308031,
            45.0812116
          ],
          [
            14.5787981,
            45.0274528
          ],
          [
            14.7067737,
            44.9418657
          ],
          [
            14.7986434,
            45.0001119
          ],
          [
            14.6692375,
            45.1052311
          ],
          [
            14.5814903,
            45.2299826
          ],
          [
            14.5336858,
            45.1993943
          ],
          [
            14.4308031,
            45.0812116
          ]
        ]
      }
    },
    {
      "type": "Feature",
      "properties": {
        "closed": true
      },
      "geometry": {
        "type": "LineString",
        "coordinates": [
          [
            17.754181,
            42.6928123
          ],
          [
            17.6386273,
            42.7381671
          ],
          [
            17.3962155,
            42.8004348
          ],
          [
            17.3171601,
            42.7857874
          ],
          [
            17.3601272,
            42.7671386
          ],
          [
            17.4373649,
            42.7539444
          ],
          [
            17.6979525,
            42.692196
          ],
          [
            17.754181,
            42.6928123
          ]
        ]
      }
    },
    {
      "type": "Feature",
      "properties": {
        "closed": true
      },
      "geometry": {
        "type": "LineString",
        "coordinates": [
          [
            15.2262614,
            43.8964589
          ],
          [
            15.0958133,
            43.9786379
          ],
          [
            14.998178,
            44.078421
          ],
          [
            14.872334,
            44.167677
          ],
          [
            14.8330814,
            44.164685
          ],
          [
            15.0777618,
            43.9504897
          ],
          [
            15.1376199,
            43.9286916
          ],
          [
            15.2262614,
            43.8964589
          ]
        ]
      }
    },
    {
      "type": "Feature",
      "properties": {
        "closed": true
      },
      "geometry": {
        "type": "LineString",
        "coordinates": [
          [
            15.2205653,
            43.8706616
          ],
          [
            15.2410798,
            43.8455618
          ],
          [
            15.3052896,
            43.8108972
          ],
          [
            15.3071536,
            43.8040295
          ],
          [
            15.3586033,
            43.7820466
          ],
          [
            15.3422945,
            43.807922
          ],
          [
            15.2626727,
            43.8693559
          ],
          [
            15.2205653,
            43.8706616
          ]
        ]
      }
    },
    {
      "type": "Feature",
      "properties": {
        "closed": true
      },
      "geometry": {
        "type": "LineString",
        "coordinates": [
          [
            14.4598904,
            44.5449013
          ],
          [
            14.415926,
            44.5883334
          ],
          [
            14.3963854,
            44.645698
          ],
          [
            14.3494941,
            44.7110627
          ],
          [
            14.3619847,
            44.6378798
          ],
          [
            14.3802939,
            44.5942979
          ],
          [
            14.4080167,
            44.5598958
          ],
          [
            14.4598904,
            44.5449013
          ]
        ]
      }
    },
    {
      "type": "Feature",
      "properties": {
        "closed": false
      },
      "geometry": {
        "type": "LineString",
        "coordinates": [
          [
            13.7228223,
            45.5947231
          ],
          [
            13.7288323,
            45.555208
          ],
          [
            13.6559397,
            45.5417409
          ],
          [
            13.5997364,
            45.525414
          ],
          [
            13.5924001,
            45.4889381
          ],
          [
            13.5063183,
            45.4673093
          ],
          [
            13.5240258,
            45.4257377
          ],
          [
            13.5322379,
            45.3865901
          ],
          [
            13.5380557,
            45.3521283
          ],
          [
            13.5593567,
            45.314675
          ],
          [
            13.5684814,
            45.298277
          ],
          [
            13.5729569,
            45.264368
          ],
          [
            13.5947136,
            45.2380258
          ],
          [
            13.5920342,
            45.2094005
          ],
          [
            13.6034158,
            45.180721
          ],
          [
            13.6124213,
            45.130239
          ],
          [
            13.6212767,
            45.1277295
          ],
          [
            13.6318548,
            45.0995656
          ],
          [
            13.6330536,
            45.0761456
          ],
          [
            13.6812359,
            45.0441471
          ],
          [
            13.7242405,
            44.9975282
          ],
          [
            13.7816496,
            44.951439
          ],
          [
            13.7945391,
            44.8901793
          ],
          [
            13.8367858,
            44.8645475
          ],
          [
            13.8139381,
            44.8544156
          ],
          [
            13.8426373,
            44.8430128
          ],
          [
            13.8561615,
            44.8156129
          ],
          [
            13.9056089,
            44.76933
          ],
          [
            13.9138047,
            44.7928727
          ],
          [
            13.8985898,
            44.8245003
          ],
          [
            13.9338835,
            44.8171075
          ],
          [
            13.9942781,
            44.80789
          ],
          [
            13.978158,
            44.8404362
          ],
          [
            13.9807151,
            44.9030308
          ],
          [
            14.0273224,
            44.9264566
          ],
          [
            14.0529729,
            44.947513
          ],
          [
            14.0766335,
            44.9779403
          ],
          [
            14.0593317,
            45.018626
          ],
          [
            14.0650617,
            44.9449945
          ],
          [
            14.1692956,
            44.9791404
          ],
          [
            14.1630004,
            45.0411609
          ],
          [
            14.1659055,
            45.0727789
          ],
          [
            14.2237396,
            45.1368232
          ],
          [
            14.2650068,
            45.2526758
          ],
          [
            14.4476489,
            45.3268667
          ],
          [
            14.4883435,
            45.3080293
          ],
          [
            14.5812552,
            45.2790285
          ],
          [
            14.5752916,
            45.2573673
          ],
          [
            14.6551118,
            45.2008162
          ],
          [
            14.8143596,
            45.1142392
          ],
          [
            14.8990866,
            44.9988717
          ],
          [
            14.911421,
            44.9034688
          ],
          [
            14.8848828,
            44.8591301
          ],
          [
            14.880242,
            44.8181438
          ],
          [
            14.8874936,
            44.7842437
          ],
          [
            14.8897273,
            44.721274
          ],
          [
            14.903607,
            44.6881323
          ],
          [
            14.9653218,
            44.6054366
          ],
          [
            15.014581,
            44.5594218
          ],
          [
            15.13614,
            44.4710829
          ],
          [
            15.1904952,
            44.43569
          ],
          [
            15.4083959,
            44.3172044
          ],
          [
            15.5258004,
            44.2690543
          ],
          [
            15.528172,
            44.2269946
          ],
          [
            15.6292301,
            44.134303
          ],
          [
            15.5482007,
            44.1909316
          ],
          [
            15.5081415,
            44.2136412
          ],
          [
            15.4175386,
            44.254216
          ],
          [
            15.2657558,
            44.3321706
          ],
          [
            15.2989593,
            44.2483244
          ],
          [
            15.2135717,
            44.2568199
          ],
          [
            15.1452518,
            44.2779789
          ],
          [
            15.124655,
            44.2494279
          ],
          [
            15.1670178,
            44.215522
          ],
          [
            15.2033238,
            44.1309887
          ],
          [
            15.2264319,
            44.1102694
          ],
          [
            15.2870268,
            44.0577869
          ],
          [
            15.3858656,
            43.9914824
          ],
          [
            15.5238628,
            43.899453
          ],
          [
            15.5596564,
            43.8598646
          ],
          [
            15.6766852,
            43.8124571
          ],
          [
            15.6144328,
            43.8227534
          ],
          [
            15.696167,
            43.7706492
          ],
          [
            15.7475758,
            43.7505608
          ],
          [
            15.8557221,
            43.7249497
          ],
          [
            15.9058488,
            43.7202099
          ],
          [
            15.8556155,
            43.7156106
          ],
          [
            15.942173,
            43.6933255
          ],
          [
            15.9435552,
            43.6565461
          ],
          [
            15.9745001,
            43.6305078
          ],
          [
            15.9191845,
            43.6074207
          ],
          [
            15.917577,
            43.570894
          ],
          [
            15.9269894,
            43.5509931
          ],
          [
            15.9690158,
            43.5201901
          ],
          [
            15.9807508,
            43.5350414
          ],
          [
            15.9626251,
            43.4986892
          ],
          [
            16.0015074,
            43.499243
          ],
          [
            16.0434336,
            43.4900326
          ],
          [
            16.0785361,
            43.4789149
          ],
          [
            16.1707391,
            43.485813
          ],
          [
            16.1857804,
            43.5118337
          ],
          [
            16.3478171,
            43.5510502
          ],
          [
            16.444127,
            43.523647
          ],
          [
            16.4282241,
            43.5207602
          ],
          [
            16.442516,
            43.5036503
          ],
          [
            16.5307564,
            43.5049498
          ],
          [
            16.6394107,
            43.4369944
          ],
          [
            16.8685791,
            43.397449
          ],
          [
            17.0083651,
            43.2947209
          ],
          [
            17.0772961,
            43.2335933
          ],
          [
            17.2604381,
            43.1510313
          ],
          [
            17.3968551,
            43.0549483
          ],
          [
            17.4225188,
            43.0428351
          ],
          [
            17.4628025,
            43.021793
          ],
          [
            17.4930644,
            42.9697817
          ],
          [
            17.557476,
            42.9401408
          ],
          [
            17.69125,
            42.8683097
          ],
          [
            17.7080726,
            42.8569874
          ],
          [
            17.6805609,
            42.8620954
          ],
          [
            17.5983717,
            42.8945598
          ],
          [
            17.4794027,
            42.9198451
          ],
          [
            17.4401932,
            42.9533545
          ],
          [
            17.0007322,
            43.0465448
          ],
          [
            17.0350644,
            43.0242048
          ],
          [
            17.0686391,
            42.9837698
          ],
          [
            17.3346113,
            42.9317201
          ],
          [
            17.4544356,
            42.8924506
          ],
          [
            17.4464521,
            42.8678515
          ],
          [
            17.7091545,
            42.7965804
          ],
          [
            17.761654,
            42.7610261
          ],
          [
            17.7814176,
            42.7871938
          ],
          [
            17.8451177,
            42.7935707
          ],
          [
            17.8774041,
            42.7630224
          ],
          [
            18.0447641,
            42.7017422
          ],
          [
            18.0882302,
            42.6533082
          ],
          [
            18.1797112,
            42.6145927
          ],
          [
            18.2079178,
            42.5820304
          ],
          [
            18.4254304,
            42.4543997
          ],
          [
            18.4504034,
            42.4508916
          ],
          [
            18.5138853,
            42.4213153
          ],
          [
            18.6043427,
            42.4319236
          ],
          [
            18.6944282,
            42.5168351
          ],
          [
            18.7715678,
            42.4220476
          ],
          [
            18.6812439,
            42.458141
          ],
          [
            18.7060253,
            42.4056666
          ],
          [
            18.5768528,
            42.4318625
          ],
          [
            18.5798839,
            42.4005978
          ],
          [
            18.616821,
            42.3682308
          ],
          [
            18.6528528,
            42.3827368
          ],
          [
            18.7087877,
            42.3398703
          ],
          [
            18.7871764,
            42.2700858
          ],
          [
            18.8469089,
            42.2847858
          ],
          [
            18.8902099,
            42.2556525
          ],
          [
            18.9666051,
            42.1737649
          ],
          [
            19.082951,
            42.1133887
          ],
          [
            19.0849063,
            42.0855215
          ],
          [
            19.1415802,
            42.0437208
          ],
          [
            19.1480839,
            41.99286
          ],
          [
            19.1505674,
            41.9490191
          ],
          [
            19.3727465,
            41.8509
          ]
        ]
      }
    }
  ]
}
